{
  "type": "FeatureCollection",
  "features": [
    {
      "type": "Feature",
      "properties": {
        "norad_id": 31990,
        "name": "FENGYUN 1C DEB",
        "group": "fengyun-1c-debris",
        "lat": 43.03662409130503,
        "lon": 4.297286813322411,
        "alt_km": 1164.7589779745176,
        "timestamp": "2025-12-16T17:51:11.216858+00:00",
        "meta_object_name": "FENGYUN 1C DEB",
        "meta_object_id": "1999-025CPT",
        "meta_epoch": "2025-12-15T08:06:54.062208",
        "meta_mean_motion": 13.57203677,
        "meta_eccentricity": 0.02602625,
        "meta_inclination": 99.1605,
        "meta_ra_of_asc_node": 11.6518,
        "meta_arg_of_pericenter": 177.9091,
        "meta_mean_anomaly": 203.3723,
        "meta_ephemeris_type": 0,
        "meta_classification_type": "U",
        "meta_norad_cat_id": 31990,
        "meta_element_set_no": 999,
        "meta_rev_at_epoch": 62807,
        "meta_bstar": 0.00029909079,
        "meta_mean_motion_dot": 2.26e-06,
        "meta_mean_motion_ddot": 0,
        "tle_line1": "1 31990U 99025CPT 25349.33812572  .00000226  00000+0  29909-3 0  9992",
        "tle_line2": "2 31990  99.1605  11.6518 0260262 177.9091 203.3723 13.57203677628072"
      },
      "geometry": {
        "type": "Point",
        "coordinates": [
          4.297286813322411,
          43.03662409130503
        ]
      }
    },
    {
      "type": "Feature",
      "properties": {
        "norad_id": 31991,
        "name": "FENGYUN 1C DEB",
        "group": "fengyun-1c-debris",
        "lat": 50.69174319243792,
        "lon": 13.095869876750129,
        "alt_km": 1004.6689203277383,
        "timestamp": "2025-12-16T17:51:11.216868+00:00",
        "meta_object_name": "FENGYUN 1C DEB",
        "meta_object_id": "1999-025CPU",
        "meta_epoch": "2025-12-10T18:22:22.024416",
        "meta_mean_motion": 13.6127752,
        "meta_eccentricity": 0.02446272,
        "meta_inclination": 100.4864,
        "meta_ra_of_asc_node": 173.6062,
        "meta_arg_of_pericenter": 58.2006,
        "meta_mean_anomaly": 304.2706,
        "meta_ephemeris_type": 0,
        "meta_classification_type": "U",
        "meta_norad_cat_id": 31991,
        "meta_element_set_no": 999,
        "meta_rev_at_epoch": 62060,
        "meta_bstar": 0.00020963887,
        "meta_mean_motion_dot": 1.45e-06,
        "meta_mean_motion_ddot": 0,
        "tle_line1": "1 31991U 99025CPU 25344.76553269  .00000145  00000+0  20964-3 0  9992",
        "tle_line2": "2 31991 100.4864 173.6062 0244627  58.2006 304.2706 13.61277520620609"
      },
      "geometry": {
        "type": "Point",
        "coordinates": [
          13.095869876750129,
          50.69174319243792
        ]
      }
    },
    {
      "type": "Feature",
      "properties": {
        "norad_id": 31992,
        "name": "FENGYUN 1C DEB",
        "group": "fengyun-1c-debris",
        "lat": -0.18587487724444998,
        "lon": 130.11963384425528,
        "alt_km": 1558.7580640482192,
        "timestamp": "2025-12-16T17:51:11.216878+00:00",
        "meta_object_name": "FENGYUN 1C DEB",
        "meta_object_id": "1999-025CPV",
        "meta_epoch": "2025-12-12T04:04:23.293056",
        "meta_mean_motion": 13.22988689,
        "meta_eccentricity": 0.05424019,
        "meta_inclination": 99.1658,
        "meta_ra_of_asc_node": 306.1111,
        "meta_arg_of_pericenter": 30.97,
        "meta_mean_anomaly": 332.2249,
        "meta_ephemeris_type": 0,
        "meta_classification_type": "U",
        "meta_norad_cat_id": 31992,
        "meta_element_set_no": 999,
        "meta_rev_at_epoch": 53867,
        "meta_bstar": 0.001808457,
        "meta_mean_motion_dot": 1.63e-05,
        "meta_mean_motion_ddot": 0,
        "tle_line1": "1 31992U 99025CPV 25346.16971404  .00001630  00000+0  18085-2 0  9994",
        "tle_line2": "2 31992  99.1658 306.1111 0542401  30.9700 332.2249 13.22988689538672"
      },
      "geometry": {
        "type": "Point",
        "coordinates": [
          130.11963384425528,
          -0.18587487724444998
        ]
      }
    },
    {
      "type": "Feature",
      "properties": {
        "norad_id": 31993,
        "name": "FENGYUN 1C DEB",
        "group": "fengyun-1c-debris",
        "lat": -76.48150299588418,
        "lon": 5.204489759045152,
        "alt_km": 1447.6302605063865,
        "timestamp": "2025-12-16T17:51:11.216889+00:00",
        "meta_object_name": "FENGYUN 1C DEB",
        "meta_object_id": "1999-025CPW",
        "meta_epoch": "2025-12-14T04:46:59.917440",
        "meta_mean_motion": 13.27456305,
        "meta_eccentricity": 0.04218085,
        "meta_inclination": 99.2406,
        "meta_ra_of_asc_node": 320.3102,
        "meta_arg_of_pericenter": 131.7316,
        "meta_mean_anomaly": 232.0693,
        "meta_ephemeris_type": 0,
        "meta_classification_type": "U",
        "meta_norad_cat_id": 31993,
        "meta_element_set_no": 999,
        "meta_rev_at_epoch": 88962,
        "meta_bstar": 0.0019620406,
        "meta_mean_motion_dot": 1.397e-05,
        "meta_mean_motion_ddot": 0,
        "tle_line1": "1 31993U 99025CPW 25348.19930460  .00001397  00000+0  19620-2 0  9993",
        "tle_line2": "2 31993  99.2406 320.3102 0421808 131.7316 232.0693 13.27456305889627"
      },
      "geometry": {
        "type": "Point",
        "coordinates": [
          5.204489759045152,
          -76.48150299588418
        ]
      }
    },
    {
      "type": "Feature",
      "properties": {
        "norad_id": 31994,
        "name": "FENGYUN 1C DEB",
        "group": "fengyun-1c-debris",
        "lat": 16.79901930377478,
        "lon": -17.969355385033932,
        "alt_km": 962.8264966480629,
        "timestamp": "2025-12-16T17:51:11.216899+00:00",
        "meta_object_name": "FENGYUN 1C DEB",
        "meta_object_id": "1999-025CPX",
        "meta_epoch": "2025-12-15T19:24:15.435936",
        "meta_mean_motion": 13.9575895,
        "meta_eccentricity": 0.01624128,
        "meta_inclination": 98.5392,
        "meta_ra_of_asc_node": 343.7629,
        "meta_arg_of_pericenter": 137.5796,
        "meta_mean_anomaly": 223.8055,
        "meta_ephemeris_type": 0,
        "meta_classification_type": "U",
        "meta_norad_cat_id": 31994,
        "meta_element_set_no": 999,
        "meta_rev_at_epoch": 56839,
        "meta_bstar": -6.9669036e-05,
        "meta_mean_motion_dot": -1.44e-06,
        "meta_mean_motion_ddot": 0,
        "tle_line1": "1 31994U 99025CPX 25349.80851199 -.00000144  00000+0 -69669-4 0  9995",
        "tle_line2": "2 31994  98.5392 343.7629 0162412 137.5796 223.8055 13.95758950568390"
      },
      "geometry": {
        "type": "Point",
        "coordinates": [
          -17.969355385033932,
          16.79901930377478
        ]
      }
    },
    {
      "type": "Feature",
      "properties": {
        "norad_id": 31997,
        "name": "FENGYUN 1C DEB",
        "group": "fengyun-1c-debris",
        "lat": -19.96419822924897,
        "lon": -149.27648315891676,
        "alt_km": 940.1560234354947,
        "timestamp": "2025-12-16T17:51:11.216910+00:00",
        "meta_object_name": "FENGYUN 1C DEB",
        "meta_object_id": "1999-025CQA",
        "meta_epoch": "2025-12-15T21:25:47.322912",
        "meta_mean_motion": 13.60688194,
        "meta_eccentricity": 0.02902938,
        "meta_inclination": 102.5107,
        "meta_ra_of_asc_node": 34.2632,
        "meta_arg_of_pericenter": 266.7026,
        "meta_mean_anomaly": 90.0859,
        "meta_ephemeris_type": 0,
        "meta_classification_type": "U",
        "meta_norad_cat_id": 31997,
        "meta_element_set_no": 999,
        "meta_rev_at_epoch": 61726,
        "meta_bstar": 0.0019849043,
        "meta_mean_motion_dot": 1.913e-05,
        "meta_mean_motion_ddot": 0,
        "tle_line1": "1 31997U 99025CQA 25349.89290883  .00001913  00000+0  19849-2 0  9990",
        "tle_line2": "2 31997 102.5107  34.2632 0290293 266.7026  90.0859 13.60688194617260"
      },
      "geometry": {
        "type": "Point",
        "coordinates": [
          -149.27648315891676,
          -19.96419822924897
        ]
      }
    },
    {
      "type": "Feature",
      "properties": {
        "norad_id": 32086,
        "name": "FENGYUN 1C DEB",
        "group": "fengyun-1c-debris",
        "lat": -31.35191360608287,
        "lon": -140.20309834724935,
        "alt_km": 989.3188047365056,
        "timestamp": "2025-12-16T17:51:11.216920+00:00",
        "meta_object_name": "FENGYUN 1C DEB",
        "meta_object_id": "1999-025CQC",
        "meta_epoch": "2025-12-15T09:16:38.492832",
        "meta_mean_motion": 13.68906859,
        "meta_eccentricity": 0.02998061,
        "meta_inclination": 99.2704,
        "meta_ra_of_asc_node": 44.2007,
        "meta_arg_of_pericenter": 128.7368,
        "meta_mean_anomaly": 234.0986,
        "meta_ephemeris_type": 0,
        "meta_classification_type": "U",
        "meta_norad_cat_id": 32086,
        "meta_element_set_no": 999,
        "meta_rev_at_epoch": 61817,
        "meta_bstar": 0.0014673887,
        "meta_mean_motion_dot": 1.693e-05,
        "meta_mean_motion_ddot": 0,
        "tle_line1": "1 32086U 99025CQC 25349.38655663  .00001693  00000+0  14674-2 0  9991",
        "tle_line2": "2 32086  99.2704  44.2007 0299806 128.7368 234.0986 13.68906859618178"
      },
      "geometry": {
        "type": "Point",
        "coordinates": [
          -140.20309834724935,
          -31.35191360608287
        ]
      }
    }
  ]
}